{"type": "FeatureCollection", "features": [ {"type": "Feature", "properties": {"norad_id": 34626, "name": "COSMOS 2251 DEB", "group": "cosmos-2251-debris", "lat": 54.04921988907628, "lon": 139.95753580950193, "alt_km": 636.8457166395465, "timestamp": "2025-12-02T19:35:50.949346+00:00", "meta": {"OBJECT_NAME": "COSMOS 2251 DEB", "OBJECT_ID": "1993-036WX", "EPOCH": "2025-12-02T11:35:39.370848", "MEAN_MOTION": 14.72000157, "ECCENTRICITY": 0.0026147, "INCLINATION": 74.0482, "RA_OF_ASC_NODE": 343.8335, "ARG_OF_PERICENTER": 75.5281, "MEAN_ANOMALY": 80.4642, "EPHEMERIS_TYPE": 0, "CLASSIFICATION_TYPE": "U", "NORAD_CAT_ID": 34626, "ELEMENT_SET_NO": 999, "REV_AT_EPOCH": 88993, "BSTAR": 0.0010742, "MEAN_MOTION_DOT": 6.754e-05, "MEAN_MOTION_DDOT": 0}, "tle": {"line1": "1 34626U 93036WX  25336.48309457  .00006754  00000+0  10742-2 0  9998", "line2": "2 34626  74.0482 343.8335 0026147  75.5281  80.4642 14.72000157889933"}}, "geometry": {"type": "Point", "coordinates": [139.95753580950193, 54.04921988907628]}}, {"type": "Feature", "properties": {"norad_id": 34634, "name": "COSMOS 2251 DEB", "group": "cosmos-2251-debris", "lat": 22.623392083862715, "lon": -133.08443447285518, "alt_km": 675.2209520757569, "timestamp": "2025-12-02T19:35:50.949357+00:00", "meta": {"OBJECT_NAME": "COSMOS 2251 DEB", "OBJECT_ID": "1993-036XF", "EPOCH": "2025-12-01T15:25:16.130784", "MEAN_MOTION": 14.55598707, "ECCENTRICITY": 0.00448231, "INCLINATION": 74.0528, "RA_OF_ASC_NODE": 55.9806, "ARG_OF_PERICENTER": 166.4677, "MEAN_ANOMALY": 320.4107, "EPHEMERIS_TYPE": 0, "CLASSIFICATION_TYPE": "U", "NORAD_CAT_ID": 34634, "ELEMENT_SET_NO": 999, "REV_AT_EPOCH": 88620, "BSTAR": 0.00043465787, "MEAN_MOTION_DOT": 1.893e-05, "MEAN_MOTION_DDOT": 0}, "tle": {"line1": "1 34634U 93036XF  25335.64254781  .00001893  00000+0  43466-3 0  9992", "line2": "2 34634  74.0528  55.9806 0044823 166.4677 320.4107 14.55598707886201"}}, "geometry": {"type": "Point", "coordinates": [-133.08443447285518, 22.623392083862715]}}, {"type": "Feature", "properties": {"norad_id": 34635, "name": "COSMOS 2251 DEB", "group": "cosmos-2251-debris", "lat": -63.31124132756856, "lon": 55.199733752935785, "alt_km": 687.7062589068391, "timestamp": "2025-12-02T19:35:50.949367+00:00", "meta": {"OBJECT_NAME": "COSMOS 2251 DEB", "OBJECT_ID": "1993-036XG", "EPOCH": "2025-12-02T10:25:22.027872", "MEAN_MOTION": 14.68000816, "ECCENTRICITY": 0.0029755, "INCLINATION": 74.045, "RA_OF_ASC_NODE": 90.6251, "ARG_OF_PERICENTER": 162.5942, "MEAN_ANOMALY": 269.4264, "EPHEMERIS_TYPE": 0, "CLASSIFICATION_TYPE": "U", "NORAD_CAT_ID": 34635, "ELEMENT_SET_NO": 999, "REV_AT_EPOCH": 73068, "BSTAR": 0.0018652, "MEAN_MOTION_DOT": 0.00010748, "MEAN_MOTION_DDOT": 0}, "tle": {"line1": "1 34635U 93036XG  25336.43428273  .00010748  00000+0  18652-2 0  9997", "line2": "2 34635  74.0450  90.6251 0029755 162.5942 269.4264 14.68000816730684"}}, "geometry": {"type": "Point", "coordinates": [55.199733752935785, -63.31124132756856]}}, {"type": "Feature", "properties": {"norad_id": 34637, "name": "COSMOS 2251 DEB", "group": "cosmos-2251-debris", "lat": 48.67088790109754, "lon": 139.05908236715604, "alt_km": 716.6515825127635, "timestamp": "2025-12-02T19:35:50.949377+00:00", "meta": {"OBJECT_NAME": "COSMOS 2251 DEB", "OBJECT_ID": "1993-036XJ", "EPOCH": "2025-12-02T11:23:57.390720", "MEAN_MOTION": 14.59920364, "ECCENTRICITY": 0.0050738, "INCLINATION": 74.0474, "RA_OF_ASC_NODE": 120.7289, "ARG_OF_PERICENTER": 193.5429, "MEAN_ANOMALY": 223.6699, "EPHEMERIS_TYPE": 0, "CLASSIFICATION_TYPE": "U", "NORAD_CAT_ID": 34637, "ELEMENT_SET_NO": 999, "REV_AT_EPOCH": 88377, "BSTAR": 0.0014507, "MEAN_MOTION_DOT": 7.053e-05, "MEAN_MOTION_DDOT": 0}, "tle": {"line1": "1 34637U 93036XJ  25336.47496980  .00007053  00000+0  14507-2 0  9993", "line2": "2 34637  74.0474 120.7289 0050738 193.5429 223.6699 14.59920364883779"}}, "geometry": {"type": "Point", "coordinates": [139.05908236715604, 48.67088790109754]}}, {"type": "Feature", "properties": {"norad_id": 34641, "name": "COSMOS 2251 DEB", "group": "cosmos-2251-debris", "lat": -28.409959309389293, "lon": 91.53887571418767, "alt_km": 716.7518227414312, "timestamp": "2025-12-02T19:35:50.949388+00:00", "meta": {"OBJECT_NAME": "COSMOS 2251 DEB", "OBJECT_ID": "1993-036XN", "EPOCH": "2025-12-02T10:04:27.186240", "MEAN_MOTION": 14.51860624, "ECCENTRICITY": 0.0017485, "INCLINATION": 73.8377, "RA_OF_ASC_NODE": 101.3202, "ARG_OF_PERICENTER": 19.4191, "MEAN_ANOMALY": 38.0033, "EPHEMERIS_TYPE": 0, "CLASSIFICATION_TYPE": "U", "NORAD_CAT_ID": 34641, "ELEMENT_SET_NO": 999, "REV_AT_EPOCH": 88106, "BSTAR": 0.0013563, "MEAN_MOTION_DOT": 5.449e-05, "MEAN_MOTION_DDOT": 0}, "tle": {"line1": "1 34641U 93036XN  25336.41975910  .00005449  00000+0  13563-2 0  9995", "line2": "2 34641  73.8377 101.3202 0017485  19.4191  38.0033 14.51860624881061"}}, "geometry": {"type": "Point", "coordinates": [91.53887571418767, -28.409959309389293]}}, {"type": "Feature", "properties": {"norad_id": 34642, "name": "COSMOS 2251 DEB", "group": "cosmos-2251-debris", "lat": 33.527542478394906, "lon": 166.03448476278703, "alt_km": 768.8381309096103, "timestamp": "2025-12-02T19:35:50.949398+00:00", "meta": {"OBJECT_NAME": "COSMOS 2251 DEB", "OBJECT_ID": "1993-036XP", "EPOCH": "2025-12-02T12:46:37.237152", "MEAN_MOTION": 13.98923029, "ECCENTRICITY": 0.0208176, "INCLINATION": 74.0054, "RA_OF_ASC_NODE": 357.4817, "ARG_OF_PERICENTER": 179.6454, "MEAN_ANOMALY": 335.8761, "EPHEMERIS_TYPE": 0, "CLASSIFICATION_TYPE": "U", "NORAD_CAT_ID": 34642, "ELEMENT_SET_NO": 999, "REV_AT_EPOCH": 85150, "BSTAR": 0.0012854, "MEAN_MOTION_DOT": 2.21e-05, "MEAN_MOTION_DDOT": 0}, "tle": {"line1": "1 34642U 93036XP  25336.53237543  .00002210  00000+0  12854-2 0  9997", "line2": "2 34642  74.0054 357.4817 0208176 179.6454 335.8761 13.98923029851504"}}, "geometry": {"type": "Point", "coordinates": [166.03448476278703, 33.527542478394906]}}, {"type": "Feature", "properties": {"norad_id": 34671, "name": "COSMOS 2251 DEB", "group": "cosmos-2251-debris", "lat": -73.27423700185705, "lon": 45.865060022951496, "alt_km": 671.6194800313342, "timestamp": "2025-12-02T19:35:50.949408+00:00", "meta": {"OBJECT_NAME": "COSMOS 2251 DEB", "OBJECT_ID": "1993-036XR", "EPOCH": "2025-12-02T11:59:11.965920", "MEAN_MOTION": 14.66629636, "ECCENTRICITY": 0.0012147, "INCLINATION": 74.0248, "RA_OF_ASC_NODE": 154.0583, "ARG_OF_PERICENTER": 232.406, "MEAN_ANOMALY": 158.8678, "EPHEMERIS_TYPE": 0, "CLASSIFICATION_TYPE": "U", "NORAD_CAT_ID": 34671, "ELEMENT_SET_NO": 999, "REV_AT_EPOCH": 88147, "BSTAR": 0.0017771, "MEAN_MOTION_DOT": 9.871e-05, "MEAN_MOTION_DDOT": 0}, "tle": {"line1": "1 34671U 93036XR  25336.49944405  .00009871  00000+0  17771-2 0  9999", "line2": "2 34671  74.0248 154.0583 0012147 232.4060 158.8678 14.66629636881476"}}, "geometry": {"type": "Point", "coordinates": [45.865060022951496, -73.27423700185705]}}, {"type": "Feature", "properties": {"norad_id": 34672, "name": "COSMOS 2251 DEB", "group": "cosmos-2251-debris", "lat": 74.0037547289192, "lon": 50.881801279846016, "alt_km": 752.5259702137628, "timestamp": "2025-12-02T19:35:50.949418+00:00", "meta": {"OBJECT_NAME": "COSMOS 2251 DEB", "OBJECT_ID": "1993-036XS", "EPOCH": "2025-11-27T17:59:07.575072", "MEAN_MOTION": 14.36372529, "ECCENTRICITY": 0.00231464, "INCLINATION": 74.0336, "RA_OF_ASC_NODE": 333.1322, "ARG_OF_PERICENTER": 49.1675, "MEAN_ANOMALY": 128.2584, "EPHEMERIS_TYPE": 0, "CLASSIFICATION_TYPE": "U", "NORAD_CAT_ID": 34672, "ELEMENT_SET_NO": 999, "REV_AT_EPOCH": 64962, "BSTAR": 0.00025061703, "MEAN_MOTION_DOT": 7.1e-06, "MEAN_MOTION_DDOT": 0}, "tle": {"line1": "1 34672U 93036XS  25331.74939323  .00000710  00000+0  25062-3 0  9992", "line2": "2 34672  74.0336 333.1322 0023146  49.1675 128.2584 14.36372529649621"}}, "geometry": {"type": "Point", "coordinates": [50.881801279846016, 74.0037547289192]}}, {"type": "Feature", "properties": {"norad_id": 34678, "name": "COSMOS 2251 DEB", "group": "cosmos-2251-debris", "lat": 39.78217076190247, "lon": -170.05187743156768, "alt_km": 779.8850534121639, "timestamp": "2025-12-02T19:35:50.949429+00:00", "meta": {"OBJECT_NAME": "COSMOS 2251 DEB", "OBJECT_ID": "1993-036XY", "EPOCH": "2025-12-01T23:06:53.591328", "MEAN_MOTION": 14.30062172, "ECCENTRICITY": 0.002425, "INCLINATION": 74.0385, "RA_OF_ASC_NODE": 25.2854, "ARG_OF_PERICENTER": 77.9618, "MEAN_ANOMALY": 348.0362, "EPHEMERIS_TYPE": 0, "CLASSIFICATION_TYPE": "U", "NORAD_CAT_ID": 34678, "ELEMENT_SET_NO": 999, "REV_AT_EPOCH": 87225, "BSTAR": 3.5157384e-05, "MEAN_MOTION_DOT": 6.5e-07, "MEAN_MOTION_DDOT": 0}, "tle": {"line1": "1 34678U 93036XY  25335.96312027  .00000065  00000+0  35157-4 0  9992", "line2": "2 34678  74.0385  25.2854 0024250  77.9618 348.0362 14.30062172872250"}}, "geometry": {"type": "Point", "coordinates": [-170.05187743156768, 39.78217076190247]}}, {"type": "Feature", "properties": {"norad_id": 34680, "name": "COSMOS 2251 DEB", "group": "cosmos-2251-debris", "lat": 49.58799444441962, "lon": 168.43844598920347, "alt_km": 691.835353790917, "timestamp": "2025-12-02T19:35:50.949439+00:00", "meta": {"OBJECT_NAME": "COSMOS 2251 DEB", "OBJECT_ID": "1993-036YA", "EPOCH": "2025-12-02T11:16:46.526016", "MEAN_MOTION": 14.6043687, "ECCENTRICITY": 0.0007097, "INCLINATION": 74.0418, "RA_OF_ASC_NODE": 149.4617, "ARG_OF_PERICENTER": 243.0574, "MEAN_ANOMALY": 147.946, "EPHEMERIS_TYPE": 0, "CLASSIFICATION_TYPE": "U", "NORAD_CAT_ID": 34680, "ELEMENT_SET_NO": 999, "REV_AT_EPOCH": 88178, "BSTAR": 0.0013756, "MEAN_MOTION_DOT": 6.644e-05, "MEAN_MOTION_DDOT": 0}, "tle": {"line1": "1 34680U 93036YA  25336.46998294  .00006644  00000+0  13756-2 0  9995", "line2": "2 34680  74.0418 149.4617 0007097 243.0574 147.9460 14.60436870881789"}}, "geometry": {"type": "Point", "coordinates": [168.43844598920347, 49.58799444441962]}}]}